start=new Date('2022-05-24T00:00:00.000Z').valueOf();
sats=[{"BSTAR":"-0.00002707200000","CLASSIFICATION_TYPE":"U","MEAN_ANOMALY":"315.5577","RA_OF_ASC_NODE":"98.0631","LAUNCH_DATE":"2020-09-03","CENTER_NAME":"EARTH","SEMIMAJOR_AXIS":"6925.369","TLE_LINE1":"1 46341U 20062S   22143.81296658 -.00000685  00000-0 -27072-4 0  9998","GP_ID":"204363216","NORAD_CAT_ID":"46341","APOAPSIS":"548.482","INCLINATION":"53.0560","TIME_SYSTEM":"UTC","SITE":"AFETR","EPOCH":"2022-05-23T19:30:40.312512","OBJECT_NAME":"STARLINK-1760","RCS_SIZE":"LARGE","PERIOD":"95.593","ELEMENT_SET_NO":"999","TLE_LINE2":"2 46341  53.0560  98.0631 0001802  44.5557 315.5577 15.06393334 95719","FILE":"3460905","MEAN_MOTION_DOT":"-0.00000685","MEAN_ELEMENT_THEORY":"SGP4","EPHEMERIS_TYPE":"0","MEAN_MOTION_DDOT":"0.0000000000000","OBJECT_ID":"2020-062S","REV_AT_EPOCH":"9571","DECAY_DATE":null,"COUNTRY_CODE":"US","MEAN_MOTION":"15.06393334","OBJECT_TYPE":"PAYLOAD","PERIAPSIS":"545.986","REF_FRAME":"TEME","ARG_OF_PERICENTER":"44.5557","ECCENTRICITY":"0.00018020"},{"SEMIMAJOR_AXIS":"6925.362","BSTAR":"0.00005322900000","MEAN_ANOMALY":"307.9720","CLASSIFICATION_TYPE":"U","LAUNCH_DATE":"2020-09-03","RA_OF_ASC_NODE":"118.7310","CENTER_NAME":"EARTH","APOAPSIS":"548.589","INCLINATION":"53.0564","TIME_SYSTEM":"UTC","SITE":"AFETR","EPOCH":"2022-05-23T15:50:23.951616","TLE_LINE1":"1 46342U 20062T   22143.65999944  .00000511  00000-0  53229-4 0  9998","GP_ID":"204363964","NORAD_CAT_ID":"46342","ELEMENT_SET_NO":"999","TLE_LINE2":"2 46342  53.0564 118.7310 0001967  52.1446 307.9720 15.06395699 95409","MEAN_MOTION_DOT":"0.00000511","FILE":"3460905","EPHEMERIS_TYPE":"0","MEAN_ELEMENT_THEORY":"SGP4","OBJECT_ID":"2020-062T","MEAN_MOTION_DDOT":"0.0000000000000","REV_AT_EPOCH":"9540","DECAY_DATE":null,"COUNTRY_CODE":"US","OBJECT_NAME":"STARLINK-1762","RCS_SIZE":"LARGE","PERIOD":"95.592","PERIAPSIS":"545.865","REF_FRAME":"TEME","ARG_OF_PERICENTER":"52.1446","ECCENTRICITY":"0.00019670","MEAN_MOTION":"15.06395699","OBJECT_TYPE":"PAYLOAD"},{"REV_AT_EPOCH":"9567","DECAY_DATE":null,"COUNTRY_CODE":"US","OBJECT_ID":"2020-062U","MEAN_MOTION_DDOT":"0.0000000000000","TLE_LINE2":"2 46343  53.0562  99.0832 0002140  58.6659 301.4539 15.06362698 95678","FILE":"3460905","MEAN_MOTION_DOT":"0.00009193","MEAN_ELEMENT_THEORY":"SGP4","EPHEMERIS_TYPE":"0","ELEMENT_SET_NO":"999","PERIOD":"95.595","RCS_SIZE":"LARGE","OBJECT_NAME":"STARLINK-1764","ECCENTRICITY":"0.00021400","REF_FRAME":"TEME","ARG_OF_PERICENTER":"58.6659","PERIAPSIS":"545.846","OBJECT_TYPE":"PAYLOAD","MEAN_MOTION":"15.06362698","SEMIMAJOR_AXIS":"6925.463","RA_OF_ASC_NODE":"99.0832","LAUNCH_DATE":"2020-09-03","CENTER_NAME":"EARTH","MEAN_ANOMALY":"301.4539","CLASSIFICATION_TYPE":"U","BSTAR":"0.00063586000000","SITE":"AFETR","EPOCH":"2022-05-23T14:06:54.956448","INCLINATION":"53.0562","TIME_SYSTEM":"UTC","APOAPSIS":"548.810","NORAD_CAT_ID":"46343","TLE_LINE1":"1 46343U 20062U   22143.58813607  .00009193  00000-0  63586-3 0  9993","GP_ID":"204363717"},{"EPOCH":"2022-05-23T06:35:44.365056","SITE":"AFETR","TIME_SYSTEM":"UTC","INCLINATION":"53.0570","APOAPSIS":"548.762","NORAD_CAT_ID":"46344","GP_ID":"204326850","TLE_LINE1":"1 46344U 20062V   22143.27481904  .00000241  00000-0  35068-4 0  9991","SEMIMAJOR_AXIS":"6925.369","CENTER_NAME":"EARTH","LAUNCH_DATE":"2020-09-03","RA_OF_ASC_NODE":"100.4829","MEAN_ANOMALY":"319.1966","CLASSIFICATION_TYPE":"U","BSTAR":"0.00003506800000","ECCENTRICITY":"0.00022060","ARG_OF_PERICENTER":"40.9189","REF_FRAME":"TEME","PERIAPSIS":"545.707","OBJECT_TYPE":"PAYLOAD","MEAN_MOTION":"15.06393181","COUNTRY_CODE":"US","DECAY_DATE":null,"REV_AT_EPOCH":"9562","OBJECT_ID":"2020-062V","MEAN_MOTION_DDOT":"0.0000000000000","MEAN_ELEMENT_THEORY":"SGP4","EPHEMERIS_TYPE":"0","FILE":"3460386","TLE_LINE2":"2 46344  53.0570 100.4829 0002206  40.9189 319.1966 15.06393181 95622","MEAN_MOTION_DOT":"0.00000241","ELEMENT_SET_NO":"999","PERIOD":"95.593","RCS_SIZE":"LARGE","OBJECT_NAME":"STARLINK-1765"},{"OBJECT_TYPE":"PAYLOAD","MEAN_MOTION":"15.06401406","ECCENTRICITY":"0.00016930","PERIAPSIS":"546.037","ARG_OF_PERICENTER":"46.5521","REF_FRAME":"TEME","PERIOD":"95.592","OBJECT_NAME":"STARLINK-1767","RCS_SIZE":"LARGE","OBJECT_ID":"2020-062W","MEAN_MOTION_DDOT":"0.0000000000000","DECAY_DATE":null,"COUNTRY_CODE":"US","REV_AT_EPOCH":"9536","ELEMENT_SET_NO":"999","EPHEMERIS_TYPE":"0","MEAN_ELEMENT_THEORY":"SGP4","TLE_LINE2":"2 46345  53.0541 119.8642 0001693  46.5521 313.5608 15.06401406 95361","FILE":"3460386","MEAN_MOTION_DOT":"-0.00002362","NORAD_CAT_ID":"46345","TLE_LINE1":"1 46345U 20062W   22143.40935130 -.00002362  00000-0 -13969-3 0  9995","GP_ID":"204327100","EPOCH":"2022-05-23T09:49:27.952320","SITE":"AFETR","APOAPSIS":"548.382","TIME_SYSTEM":"UTC","INCLINATION":"53.0541","MEAN_ANOMALY":"313.5608","CLASSIFICATION_TYPE":"U","CENTER_NAME":"EARTH","RA_OF_ASC_NODE":"119.8642","LAUNCH_DATE":"2020-09-03","BSTAR":"-0.00013969000000","SEMIMAJOR_AXIS":"6925.344"},{"COUNTRY_CODE":"US","DECAY_DATE":null,"REV_AT_EPOCH":"9757","MEAN_MOTION_DDOT":"0.0000000000000","OBJECT_ID":"2020-062X","EPHEMERIS_TYPE":"0","MEAN_ELEMENT_THEORY":"SGP4","TLE_LINE2":"2 46346  53.0535 326.2128 0003318  16.9035 343.2076 15.34234029 97575","MEAN_MOTION_DOT":"-0.00012090","FILE":"3460905","ELEMENT_SET_NO":"999","PERIOD":"93.858","RCS_SIZE":"LARGE","OBJECT_NAME":"STARLINK-1546","ECCENTRICITY":"0.00033180","ARG_OF_PERICENTER":"16.9035","REF_FRAME":"TEME","PERIAPSIS":"460.929","OBJECT_TYPE":"PAYLOAD","MEAN_MOTION":"15.34234029","SEMIMAJOR_AXIS":"6841.334","CENTER_NAME":"EARTH","LAUNCH_DATE":"2020-09-03","RA_OF_ASC_NODE":"326.2128","CLASSIFICATION_TYPE":"U","MEAN_ANOMALY":"343.2076","BSTAR":"-0.00034898000000","EPOCH":"2022-05-23T20:26:58.580160","SITE":"AFETR","TIME_SYSTEM":"UTC","INCLINATION":"53.0535","APOAPSIS":"465.469","NORAD_CAT_ID":"46346","TLE_LINE1":"1 46346U 20062X   22143.85206690 -.00012090  00000-0 -34898-3 0  9990","GP_ID":"204363465"},{"APOAPSIS":"548.684","TIME_SYSTEM":"UTC","INCLINATION":"53.0560","EPOCH":"2022-05-23T12:00:11.375424","SITE":"AFETR","GP_ID":"204294318","TLE_LINE1":"1 46347U 20062Y   22143.50013166 -.00002420  00000-0 -14373-3 0  9999","NORAD_CAT_ID":"46347","SEMIMAJOR_AXIS":"6925.431","BSTAR":"-0.00014373000000","MEAN_ANOMALY":"316.6786","CLASSIFICATION_TYPE":"U","CENTER_NAME":"EARTH","RA_OF_ASC_NODE":"74.4559","LAUNCH_DATE":"2020-09-03","PERIAPSIS":"545.907","ARG_OF_PERICENTER":"43.4361","REF_FRAME":"TEME","ECCENTRICITY":"0.00020050","MEAN_MOTION":"15.06373230","OBJECT_TYPE":"PAYLOAD","ELEMENT_SET_NO":"999","MEAN_ELEMENT_THEORY":"SGP4","EPHEMERIS_TYPE":"0","TLE_LINE2":"2 46347  53.0560  74.4559 0002005  43.4361 316.6786 15.06373230 96188","MEAN_MOTION_DOT":"-0.00002420","FILE":"3459800","MEAN_MOTION_DDOT":"0.0000000000000","OBJECT_ID":"2020-062Y","DECAY_DATE":null,"COUNTRY_CODE":"US","REV_AT_EPOCH":"9618","OBJECT_NAME":"STARLINK-1547","RCS_SIZE":"LARGE","PERIOD":"95.594"},{"NORAD_CAT_ID":"46348","GP_ID":"204326350","TLE_LINE1":"1 46348U 20062Z   22143.27849639  .00001260  00000-0  10349-3 0  9994","EPOCH":"2022-05-23T06:41:02.088096","SITE":"AFETR","APOAPSIS":"548.756","TIME_SYSTEM":"UTC","INCLINATION":"53.0549","CLASSIFICATION_TYPE":"U","MEAN_ANOMALY":"315.3530","CENTER_NAME":"EARTH","RA_OF_ASC_NODE":"100.4478","LAUNCH_DATE":"2020-09-03","BSTAR":"0.00010349000000","SEMIMAJOR_AXIS":"6925.345","OBJECT_TYPE":"PAYLOAD","MEAN_MOTION":"15.06401140","ECCENTRICITY":"0.00022330","PERIAPSIS":"545.664","ARG_OF_PERICENTER":"44.7639","REF_FRAME":"TEME","PERIOD":"95.592","RCS_SIZE":"LARGE","OBJECT_NAME":"STARLINK-1553","MEAN_MOTION_DDOT":"0.0000000000000","OBJECT_ID":"2020-062Z","DECAY_DATE":null,"COUNTRY_CODE":"US","REV_AT_EPOCH":"9562","ELEMENT_SET_NO":"999","EPHEMERIS_TYPE":"0","MEAN_ELEMENT_THEORY":"SGP4","TLE_LINE2":"2 46348  53.0549 100.4478 0002233  44.7639 315.3530 15.06401140 95624","FILE":"3460386","MEAN_MOTION_DOT":"0.00001260"},{"SEMIMAJOR_AXIS":"6925.398","BSTAR":"0.00006089000000","MEAN_ANOMALY":"315.1276","CLASSIFICATION_TYPE":"U","CENTER_NAME":"EARTH","LAUNCH_DATE":"2020-09-03","RA_OF_ASC_NODE":"74.2883","APOAPSIS":"548.772","TIME_SYSTEM":"UTC","INCLINATION":"53.0564","EPOCH":"2022-05-23T12:58:34.345920","SITE":"AFETR","GP_ID":"204326600","TLE_LINE1":"1 46349U 20062AA  22143.54067530  .00000625  00000-0  60890-4 0  9998","NORAD_CAT_ID":"46349","ELEMENT_SET_NO":"999","EPHEMERIS_TYPE":"0","MEAN_ELEMENT_THEORY":"SGP4","TLE_LINE2":"2 46349  53.0564  74.2883 0002178  44.9889 315.1276 15.06383809 96017","MEAN_MOTION_DOT":"0.00000625","FILE":"3460386","OBJECT_ID":"2020-062AA","MEAN_MOTION_DDOT":"0.0000000000000","COUNTRY_CODE":"US","DECAY_DATE":null,"REV_AT_EPOCH":"9601","RCS_SIZE":"LARGE","OBJECT_NAME":"STARLINK-1575","PERIOD":"95.593","PERIAPSIS":"545.755","ARG_OF_PERICENTER":"44.9889","REF_FRAME":"TEME","ECCENTRICITY":"0.00021780","MEAN_MOTION":"15.06383809","OBJECT_TYPE":"PAYLOAD"},{"NORAD_CAT_ID":"46350","TLE_LINE1":"1 46350U 20062AB  22143.63788459 -.00000009  00000-0  18330-4 0  9999","GP_ID":"204363965","EPOCH":"2022-05-23T15:18:33.228576","SITE":"AFETR","TIME_SYSTEM":"UTC","INCLINATION":"53.0542","APOAPSIS":"548.729","CENTER_NAME":"EARTH","RA_OF_ASC_NODE":"118.8542","LAUNCH_DATE":"2020-09-03","CLASSIFICATION_TYPE":"U","MEAN_ANOMALY":"312.5784","BSTAR":"0.00001833000000","SEMIMAJOR_AXIS":"6925.370","OBJECT_TYPE":"PAYLOAD","MEAN_MOTION":"15.06393093","ECCENTRICITY":"0.00021580","ARG_OF_PERICENTER":"47.5387","REF_FRAME":"TEME","PERIAPSIS":"545.740","PERIOD":"95.593","RCS_SIZE":"LARGE","OBJECT_NAME":"STARLINK-1617","DECAY_DATE":null,"COUNTRY_CODE":"US","REV_AT_EPOCH":"9540","MEAN_MOTION_DDOT":"0.0000000000000","OBJECT_ID":"2020-062AB","EPHEMERIS_TYPE":"0","MEAN_ELEMENT_THEORY":"SGP4","TLE_LINE2":"2 46350  53.0542 118.8542 0002158  47.5387 312.5784 15.06393093 95405","FILE":"3460905","MEAN_MOTION_DOT":"-0.00000009","ELEMENT_SET_NO":"999"}];
